FLOCK 4X-11             
1 51049U 22002BT  23346.93116694  .00021254  00000+0  55870-3 0  9993
2 51049  97.4135  56.1809 0004685 304.5095  55.5707 15.38604117106246
FLOCK 4X-40             
1 51052U 22002BW  23347.16560338  .00039520  00000+0  11152-2 0  9990
2 51052  97.4149  55.5821 0005116 338.3792  21.7235 15.36271932106223
FLOCK 4X-24             
1 51056U 22002CA  23346.78809715  .00015179  00000+0  44997-3 0  9994
2 51056  97.4155  55.2260 0004414 327.0332  33.0635 15.34927947106168
FLOCK 4X-4              
1 51064U 22002CJ  23346.93527033  .00017957  00000+0  52396-3 0  9998
2 51064  97.4177  55.5389 0005283 323.1418  36.9461 15.35386631106195
FLOCK 4X-7              
1 51065U 22002CK  23347.16725323  .00018054  00000+0  53224-3 0  9997
2 51065  97.4181  55.9295 0005743 338.1682  21.9316 15.35058081106223
FLOCK 4X-14             
1 51066U 22002CL  23347.16378251  .00023721  00000+0  66027-3 0  9994
2 51066  97.4191  56.3726 0005357 335.5208  24.5781 15.36805286106239
FLOCK 4Y-24             
1 55020U 23001M   23346.59978532  .00007568  00000+0  33096-3 0  9993
2 55020  97.4549  44.5615 0011292 107.6433 252.6037 15.22302257 52186
FLOCK 4Y-32             
1 55021U 23001N   23347.17089403  .00009999  00000+0  43328-3 0  9998
2 55021  97.4537  45.1562 0011190 102.4097 257.8392 15.22526880 52279
FLOCK 4Y-22             
1 55022U 23001P   23346.72513995  .00008007  00000+0  35001-3 0  9995
2 55022  97.4548  44.7078 0011680  99.6695 260.5862 15.22291567 52201
FLOCK 4Y-18             
1 55023U 23001Q   23346.71295358  .00008505  00000+0  37032-3 0  9994
2 55023  97.4582  44.8545 0011227 105.9423 254.3051 15.22413720 52205
FLOCK 4Y-14             
1 55024U 23001R   23347.11593132  .00009309  00000+0  40673-3 0  9999
2 55024  97.4567  45.1897 0011551 107.6170 252.6329 15.22265039 52264
FLOCK 4Y-30             
1 55025U 23001S   23347.16711472  .00009926  00000+0  43055-3 0  9996
2 55025  97.4583  45.3337 0011425 105.6224 254.6274 15.22493946 52274
FLOCK 4Y-19             
1 55026U 23001T   23347.17545605  .00009594  00000+0  41775-3 0  9999
2 55026  97.4539  45.1406 0011834  99.0583 261.1993 15.22367930 52273
FLOCK 4Y-25             
1 55027U 23001U   23347.10632552  .00009548  00000+0  41597-3 0  9992
2 55027  97.4528  45.0477 0011377 103.5196 256.7309 15.22354946 52265
FLOCK 4Y-5              
1 55028U 23001V   23346.69815259  .00007868  00000+0  34312-3 0  9993
2 55028  97.4558  44.7543 0012079  99.6755 260.5846 15.22376393 52208
FLOCK 4Y-10             
1 55029U 23001W   23347.16315100  .00009514  00000+0  41359-3 0  9996
2 55029  97.4570  45.3114 0011510 101.8800 258.3727 15.22430211 52270
FLOCK 4Y-29             
1 55030U 23001X   23347.16045396  .00013115  00000+0  56199-3 0  9995
2 55030  97.4534  45.1377 0011874  97.7374 262.5211 15.22831435 52271
FLOCK 4Y-17             
1 55031U 23001Y   23347.17147983  .00009536  00000+0  41489-3 0  9990
2 55031  97.4580  45.3306 0011692 105.0005 255.2526 15.22399910 52274
FLOCK 4Y-7              
1 55032U 23001Z   23346.62396446  .00007695  00000+0  33551-3 0  9995
2 55032  97.4546  44.6783 0012073  99.2073 261.0530 15.22390839 52193
FLOCK 4Y-28             
1 55033U 23001AA  23347.16539741  .00012069  00000+0  46159-3 0  9992
2 55033  97.4512  46.1127 0009952  98.8150 261.4216 15.26689914 52340
FLOCK 4Y-3              
1 55035U 23001AC  23347.14382848  .00011057  00000+0  47906-3 0  9993
2 55035  97.4538  45.1809 0014413 103.4221 256.8622 15.22466173 52273
FLOCK 4Y-1              
1 55039U 23001AG  23347.09061604  .00014393  00000+0  58467-3 0  9995
2 55039  97.4552  45.4076 0012011  97.1399 263.1204 15.24612588 52282
FLOCK 4Y-16             
1 55040U 23001AH  23346.74724904  .00008145  00000+0  35286-3 0  9999
2 55040  97.4587  45.0090 0011805 106.3026 253.9510 15.22591120 52210
FLOCK 4Y-33             
1 55042U 23001AK  23346.69390705  .00007541  00000+0  32915-3 0  9998
2 55042  97.4540  44.6775 0012357 102.1468 258.1153 15.22358699 52204
FLOCK 4Y-11             
1 55043U 23001AL  23347.13004651  .00008910  00000+0  39752-3 0  9998
2 55043  97.4580  45.0814 0011982 100.5575 259.7011 15.21559470 52256
FLOCK 4Y-4              
1 55055U 23001AY  23346.73685868  .00008110  00000+0  35073-3 0  9995
2 55055  97.4559  44.8881 0013683 102.9687 257.3079 15.22630947 52210
FLOCK 4Y-35             
1 55057U 23001BA  23346.61674633  .00007587  00000+0  32948-3 0  9997
2 55057  97.4571  44.8053 0012664 108.8643 251.3967 15.22525368 52199
FLOCK 4Y-20             
1 55063U 23001BG  23346.69370761  .00007301  00000+0  31969-3 0  9993
2 55063  97.4595  44.9332 0014653 108.9313 251.3513 15.22230189 52201
FLOCK 4Y-12             
1 55065U 23001BJ  23346.75698898  .00007595  00000+0  33140-3 0  9994
2 55065  97.4593  45.0371 0014209 108.2237 252.0547 15.22345081 52215
FLOCK 4Y-6              
1 55066U 23001BK  23347.13834251  .00009567  00000+0  41315-3 0  9997
2 55066  97.4589  45.3885 0014080 107.6902 252.5872 15.22622318 52276
FLOCK 4Y-15             
1 55068U 23001BM  23346.73906741  .00007757  00000+0  33739-3 0  9998
2 55068  97.4527  44.7666 0014952 104.0686 256.2214 15.22433450 52210
FLOCK 4Y-9              
1 55069U 23001BN  23346.75029054  .00007052  00000+0  30803-3 0  9991
2 55069  97.4577  44.9367 0014335 111.1495 249.1275 15.22333567 52214
FLOCK 4Y-26             
1 55070U 23001BP  23347.12753679  .00010467  00000+0  45335-3 0  9992
2 55070  97.4555  45.2072 0014677 101.2160 259.0727 15.22489195 52274
FLOCK 4Y-8              
1 55071U 23001BQ  23347.16272427  .00010816  00000+0  46207-3 0  9991
2 55071  97.4548  45.3428 0014708 104.7562 255.5305 15.22949159 52287
FLOCK 4Y-2              
1 55074U 23001BT  23346.75371589  .00007579  00000+0  33123-3 0  9992
2 55074  97.4573  44.9475 0014636 109.1383 251.1439 15.22282608 52217
FLOCK 4Y-31             
1 55075U 23001BU  23347.11867290  .00023314  00000+0  85292-3 0  9992
2 55075  97.4517  45.7975 0013304  97.1370 263.1383 15.27977012 52310
FLOCK 4Y-21             
1 55077U 23001BW  23347.13835728  .00009956  00000+0  43225-3 0  9993
2 55077  97.4581  45.3811 0014708 106.6946 253.5906 15.22424044 52278
FLOCK 4Y-36             
1 55078U 23001BX  23346.71900766  .00009088  00000+0  39188-3 0  9991
2 55078  97.4557  44.9002 0014566 107.5728 252.7101 15.22683071 52218
FLOCK 4Y-13             
1 55079U 23001BY  23346.75220967  .00007596  00000+0  33158-3 0  9997
2 55079  97.4573  44.9365 0015242 107.0828 253.2079 15.22315219 52213
FLOCK 4Y-23             
1 55080U 23001BZ  23347.11241291  .00010671  00000+0  45646-3 0  9996
2 55080  97.4545  45.2536 0015282 102.5842 257.7104 15.22898832 52279
FLOCK 4Y-34             
1 55082U 23001CB  23346.72302939  .00008083  00000+0  35159-3 0  9993
2 55082  97.4555  44.8906 0014916 103.5206 256.7694 15.22418731 52219
FLOCK 4Y-27             
1 55083U 23001CC  23346.73903497  .00008591  00000+0  36753-3 0  9996
2 55083  97.4564  45.0214 0015275 104.4482 255.8451 15.22959915 52226
FLOCK 4Q-1              
1 58270U 23174Q   23346.89027394  .00005265  00000+0  29169-3 0  9996
2 58270  97.4829  59.2971 0011826 163.8257 196.3354 15.14174538  5315
FLOCK 4Q-16             
1 58271U 23174R   23347.15584482  .00004960  00000+0  27564-3 0  9991
2 58271  97.4794  59.5408 0011848 163.7305 196.4310 15.14095110  5357
FLOCK 4Q-11             
1 58273U 23174T   23346.89067892  .00005059  00000+0  28075-3 0  9992
2 58273  97.4820  59.2925 0011607 163.9248 196.2354 15.14140087  5317
FLOCK 4Q-36             
1 58274U 23174U   23346.88529532  .00005203  00000+0  28646-3 0  9991
2 58274  97.4828  59.3061 0011256 159.1863 200.9829 15.14411959  5317
FLOCK 4Q-12             
1 58275U 23174V   23346.88971369  .00005615  00000+0  31061-3 0  9993
2 58275  97.4788  59.2803 0011022 161.7234 198.4396 15.14210508  5315
FLOCK 4Q-19             
1 58278U 23174Y   23346.88832535  .00005519  00000+0  30489-3 0  9993
2 58278  97.4775  59.2752 0010397 158.8036 201.3629 15.14274075  5310
FLOCK 4Q-8              
1 58279U 23174Z   23346.88823541  .00004786  00000+0  26495-3 0  9998
2 58279  97.4846  59.3067 0012265 162.0712 198.0955 15.14247264  5318
FLOCK 4Q-28             
1 58280U 23174AA  23346.88783179  .00005183  00000+0  28644-3 0  9992
2 58280  97.4830  59.3024 0011097 161.0693 199.0953 15.14281855  5318
FLOCK 4Q-27             
1 58282U 23174AC  23346.88600231  .00005251  00000+0  28940-3 0  9996
2 58282  97.4781  59.2790 0010467 154.3130 205.8624 15.14378005  5310
FLOCK 4Q-17             
1 58283U 23174AD  23346.81753524  .00005980  00000+0  32734-3 0  9999
2 58283  97.4770  59.2139 0010623 154.6091 205.5665 15.14560099  5306
FLOCK 4Q-26             
1 58284U 23174AE  23346.88468130  .00005515  00000+0  30297-3 0  9999
2 58284  97.4835  59.3095 0011611 159.3445 200.8258 15.14459609  5315
FLOCK 4Q-31             
1 58285U 23174AF  23346.88448811  .00005502  00000+0  30223-3 0  9999
2 58285  97.4851  59.3146 0012230 159.7626 200.4093 15.14460544  5317
FLOCK 4Q-30             
1 58286U 23174AG  23346.88408436  .00005493  00000+0  30147-3 0  9993
2 58286  97.4852  59.3145 0012591 158.4093 201.7672 15.14485158  5317
FLOCK 4Q-25             
1 58303U 23174AZ  23346.87490554  .00006407  00000+0  34631-3 0  9992
2 58303  97.4758  59.2870 0011520 146.6340 213.5620 15.14974325  5314
FLOCK 4Q-29             
1 58304U 23174BA  23346.87511637  .00005184  00000+0  28121-3 0  9997
2 58304  97.4852  59.3256 0013062 150.0533 210.1449 15.14921501  5315
FLOCK 4Q-18             
1 58305U 23174BB  23346.87326272  .00006032  00000+0  32542-3 0  9992
2 58305  97.4761  59.2896 0011778 146.2837 213.9146 15.15065664  5315
FLOCK 4Q-22             
1 58306U 23174BC  23346.87472939  .00004981  00000+0  27030-3 0  9992
2 58306  97.4769  59.2897 0012222 147.4792 212.7195 15.14935128  5314
FLOCK 4Q-23             
1 58307U 23174BD  23346.87335199  .00006006  00000+0  32409-3 0  9995
2 58307  97.4841  59.3262 0013424 151.2714 208.9260 15.15043862  5311
